#dP2018  1 15  0  0  0.00000000      96 __u+U IGS08 FIT  IAC
## 1984  86400.00000000   900.00000000 58133 0.0000000000000
+   89   C01C02C03C04C05C06C07C08C09C10C11C12C13C14E01E02E03
+        E04E05E07E08E09E11E12E14E18E19E24E26E30G01G02G03G04
+        G05G06G07G08G09G10G11G12G13G14G15G16G17G18G19G20G21
+        G22G23G24G25G26G27G28G29G30G31G32J01J02J03R01R02R03
+        R04R05R06R07R08R09R10R11R13R14R15R16R17R18R19R20R21
+        R22R23R24R26  0  0  0  0  0  0  0  0  0  0  0  0  0
++        12 12 13 12 12  8  8  8  8  9  8  8  8  7  7  7  7
++         7  7  7  7  7  7  7  7  7  7  7  7  7  3  3  3  4
++         3  3  3  3  3  3  3  3  3  3  3  3  3  3  3  3  3
++         3  3  3  3  3  3  3  3  3  3  3  9 13 12  5  5  5
++         5  6  5  5  5  5  5  5  5  5  5  5  5  5  5  5  5
++         5  5  5  8  0  0  0  0  0  0  0  0  0  0  0  0  0
%c M  cc GPS ccc cccc cccc cccc cccc ccccc ccccc ccccc ccccc
%c cc cc ccc ccc cccc cccc cccc cccc ccccc ccccc ccccc ccccc
%f  1.2500000  1.025000000  0.00000000000  0.000000000000000
%f  0.0000000  0.000000000  0.00000000000  0.000000000000000
%i    0    0    0    0      0      0      0      0         0
%i    0    0    0    0      0      0      0      0         0
/* INFORMATION & ANALYSIS CENTER (IAC)            FINAL DATA
/* S/V CLOCKS ARE ALIGNED TO GPS & GLONASS TIME RESPECTIVELY
/* USING THE BROADCAST EPHEMERIS                            
/* PCV:IGS14_1977 OL/AL:FES2004  NONE     YN ORB:CoN CLK:CoN
*  2018 01 15  6  0  0.00000000
PC01 -32328.167902  27076.284344   -550.781404    241.352807
PC02   4381.700486  41918.395801   -540.932624   -155.201283
PC03 -14743.248142  39456.417595  -1118.114474   -281.634425
PC04 -39648.464284  14354.484172   -644.670894   -190.487418
PC05  21886.263784  36011.023525   -602.337802   -120.969150
PC06 -22761.427697  24464.071517  25751.887569   -673.946959
PC07 -16702.881935  37896.150462   9128.137303   -275.094804
PC08  -6782.732406  23619.465133 -34147.512460    115.077335
PC09  -7249.679424  25386.010852  32948.583168   -501.629419
PC10  -6430.469736  41570.843468  -4745.308679     55.065980
PC11  23444.440751  -1159.624085  15090.138015   -353.204860
PC12  24899.757124  12118.882903  -2925.992840    371.420830
PC13   5981.250000  31962.420654 -26696.317791   -146.941690
PC14  24068.067144 -10721.756572   9330.864677    141.971045
PE01 -11431.661218  25648.848149   9360.771567   -253.463020
PE02  11416.224687 -25673.045129  -9331.637229      1.763898
PE03  18518.575163 -17421.153926 -15154.140058     12.378542
PE04   2283.777618  17212.387027  23969.142055     43.750197
PE05  28540.375451  -7422.216955   2569.358764    341.422120
PE07 -21833.846815  -6904.813302 -18757.869120    101.708523
PE08  -2374.865016 -17066.524335 -24069.770396   6661.071048
PE09  21803.716647   6631.170187  18883.437834   6903.110281
PE11  23691.447476  17344.230400   3816.011708   1853.337381
PE12  11519.349610  23097.822047 -14491.508128   3284.747415
PE14   -484.848451 -15137.992206  17870.511465   6647.628832
PE18   3888.808031  21365.440921 -24256.440704   6502.887835
PE19 -20090.786933  16855.853783  13714.987601     18.366266
PE24  12517.009110  13694.576049 -23064.596456   6915.788355
PE26 -22050.371682  -1644.305347 -19674.996884   6384.398460
PE30   -734.363203 -27917.986665   9825.075184   6159.053202
PG01  16271.462021   2137.761724  20807.871188    -23.614281
PG02 -14290.811969 -21929.580790  -4780.902825    227.839592
PG03  19899.067518  -8015.819163  15606.831502     -9.639538
PG04  -4510.041915  21493.885022 -14961.950324     31.845573
PG05 -10565.143516 -11683.496168 -21468.919103    -16.923732
PG06  -6545.217013 -25172.646770   5370.325281    414.766316
PG07   9353.336210 -14381.176445 -19952.497221    251.335457
PG08  25877.992157   5338.926649  -3262.775871    -87.702674
PG09  18634.749706  -9530.419910 -16394.494585    493.149769
PG10  -8599.062433  22943.598879  10092.233944    146.204225
PG11  21035.555321   3636.478449  15166.131955   -734.009717
PG12 -19311.941055   4841.977396  17305.742543    355.415381
PG13 -21303.748474 -12446.150949  -9936.745865    -95.332894
PG14   7732.206698  15971.893262  20092.482632    -92.402351
PG15 -26491.212041  -3166.725814  -2424.283740   -357.350239
PG16   9505.323096  11291.833602 -22192.154038     34.033371
PG17   2347.903436 -14754.553206  22346.506264   -130.766203
PG18 -15049.690324  21757.720975   -175.970770    633.555888
PG19  -6003.369578 -15463.122923  20413.202951   -463.604774
PG20 -19198.721144   6633.993823 -17240.961612    498.334230
PG21  -6657.847850  17164.373394 -18337.104774   -441.618552
PG22  18283.076416   -687.469645  19498.646750   -257.402329
PG23  25873.704606  -1647.073712  -6452.564901   -219.082269
PG24 -17633.415743  -4939.688718  19225.987054    -44.785752
PG25 -19146.555044  16562.347803   7465.462891   -522.563467
PG26   1131.164932  19590.567061 -17837.675684   -286.937266
PG27  18810.792112  12230.970709 -14458.404191    362.612274
PG28  12592.246650 -22082.570312   8388.898345    679.965669
PG29 -22090.855962   5142.053215 -13819.574803    510.940931
PG30   3461.891705 -21846.634733 -14590.884961    112.416868
PG31   6372.868670  25195.343095   4291.143166    148.543543
PG32   -963.506086  15299.536330  21712.160074   -532.834214
PJ01 -27448.755085  31795.521031    531.396471   -154.867068
PJ02 -24296.552257  26031.835755  27140.544174      0.009833
PJ03 -32219.550591  18541.220558 -15298.591762     -0.237752
PR01  21876.310114 -12928.131014  -2140.039045     20.686227
PR02   8710.747109 -14655.383977 -18963.282429    290.251132
PR03  -9082.661735  -7445.527686 -22607.934110    121.399179
PR04 -21652.150376   4476.303685 -12698.981313    246.053424
PR05 -21281.068173  13549.514616   3780.912792   -230.171992
PR06  -7515.654699  14729.367528  19393.823475    125.182415
PR07   9508.610518   7206.228498  22575.541599    -27.507902
PR08  21424.793210  -3988.591259  13300.681466    -27.003012
PR09  -2433.157156  25347.130696   1995.796952     47.768981
PR10   5833.602692  19735.285009 -15141.220994     15.951901
PR11  10825.899924   2277.158782 -22970.009912    -19.434949
PR13   1502.392153 -25439.242339  -1148.624041     -6.536791
PR14  -5929.580213 -19897.279355  14828.865163     23.862921
PR15 -10055.196151  -6158.386605  22641.488288     -5.213738
PR16  -9023.886927  15805.959068  17795.548367     83.305325
PR17 -17669.144339 -16251.257484   8690.518048    101.139678
PR18 -22031.613416  -9694.761836  -8333.569335    181.136849
PR19 -14029.379187   2138.239139 -21190.022968    -41.284021
PR20   3083.729719  13716.999932 -21283.504585   -323.443957
PR21  17816.612435  16142.801916  -8479.840766     18.911459
PR22  21837.853738   8746.432808  10030.950330    -10.380970
PR23  11399.158155  -4730.345737  22322.350629    130.355567
PR24  -3832.813834 -13903.397006  21017.881328   -161.103869
PR26   3221.223486  13642.406741 -21289.013267     -6.722774
EOF
